start=new Date('2023-06-01T00:00:00.000Z').valueOf();
sats=[{"ELEMENT_SET_NO":"999","SEMIMAJOR_AXIS":"6925.334","CENTER_NAME":"EARTH","REV_AT_EPOCH":"11240","RCS_SIZE":"LARGE","RA_OF_ASC_NODE":"8.3572","EPHEMERIS_TYPE":"0","TLE_LINE2":"2 48593  53.0553   8.3572 0001021  99.3386 260.7719 15.06404875112409","ECCENTRICITY":"0.00010210","OBJECT_ID":"2021-041AS","APOAPSIS":"547.906","MEAN_MOTION_DOT":"0.00005299","MEAN_MOTION":"15.06404875","EPOCH":"2023-05-31T20:47:40.640640","ARG_OF_PERICENTER":"99.3386","DECAY_DATE":null,"LAUNCH_DATE":"2021-05-15","TLE_LINE1":"1 48593U 21041AS  23151.86644260  .00005299  00000-0  37428-3 0  9997","OBJECT_TYPE":"PAYLOAD","SITE":"AFETR","PERIAPSIS":"546.492","CLASSIFICATION_TYPE":"U","NORAD_CAT_ID":"48593","OBJECT_NAME":"STARLINK-2250","MEAN_ELEMENT_THEORY":"SGP4","MEAN_ANOMALY":"260.7719","COUNTRY_CODE":"US","GP_ID":"232927073","PERIOD":"95.592","INCLINATION":"53.0553","BSTAR":"0.00037428000000","TIME_SYSTEM":"UTC","REF_FRAME":"TEME","MEAN_MOTION_DDOT":"0.0000000000000","FILE":"3922037"},{"REV_AT_EPOCH":"11283","SEMIMAJOR_AXIS":"6925.369","CENTER_NAME":"EARTH","ELEMENT_SET_NO":"999","ECCENTRICITY":"0.00012670","EPHEMERIS_TYPE":"0","TLE_LINE2":"2 48594  53.0541 338.3182 0001267  94.6190 265.4944 15.06393358112835","RA_OF_ASC_NODE":"338.3182","RCS_SIZE":"LARGE","OBJECT_TYPE":"PAYLOAD","SITE":"AFETR","TLE_LINE1":"1 48594U 21041AT  23151.89502027  .00002622  00000-0  19486-3 0  9996","LAUNCH_DATE":"2021-05-15","DECAY_DATE":null,"ARG_OF_PERICENTER":"94.6190","EPOCH":"2023-05-31T21:28:49.751328","MEAN_MOTION":"15.06393358","MEAN_MOTION_DOT":"0.00002622","OBJECT_ID":"2021-041AT","APOAPSIS":"548.111","FILE":"3922037","TIME_SYSTEM":"UTC","MEAN_MOTION_DDOT":"0.0000000000000","REF_FRAME":"TEME","COUNTRY_CODE":"US","GP_ID":"232925821","BSTAR":"0.00019486000000","PERIOD":"95.593","INCLINATION":"53.0541","MEAN_ANOMALY":"265.4944","MEAN_ELEMENT_THEORY":"SGP4","OBJECT_NAME":"STARLINK-2251","CLASSIFICATION_TYPE":"U","NORAD_CAT_ID":"48594","PERIAPSIS":"546.356"},{"TLE_LINE2":"2 48595  53.0545   8.1362 0001355  79.0150 281.0992 15.06396621113680","EPHEMERIS_TYPE":"0","ECCENTRICITY":"0.00013550","RCS_SIZE":"LARGE","RA_OF_ASC_NODE":"8.1362","REV_AT_EPOCH":"11368","CENTER_NAME":"EARTH","SEMIMAJOR_AXIS":"6925.359","ELEMENT_SET_NO":"999","REF_FRAME":"TEME","MEAN_MOTION_DDOT":"0.0000000000000","TIME_SYSTEM":"UTC","FILE":"3922037","MEAN_ANOMALY":"281.0992","MEAN_ELEMENT_THEORY":"SGP4","INCLINATION":"53.0545","PERIOD":"95.592","BSTAR":"0.00030578000000","GP_ID":"232926071","COUNTRY_CODE":"US","OBJECT_NAME":"STARLINK-2252","PERIAPSIS":"546.286","NORAD_CAT_ID":"48595","CLASSIFICATION_TYPE":"U","TLE_LINE1":"1 48595U 21041AU  23151.91436437  .00004276  00000-0  30578-3 0  9993","SITE":"AFETR","OBJECT_TYPE":"PAYLOAD","DECAY_DATE":null,"LAUNCH_DATE":"2021-05-15","EPOCH":"2023-05-31T21:56:41.081568","ARG_OF_PERICENTER":"79.0150","APOAPSIS":"548.162","OBJECT_ID":"2021-041AU","MEAN_MOTION":"15.06396621","MEAN_MOTION_DOT":"0.00004276"},{"TLE_LINE1":"1 48596U 21041AV  23151.87012864  .00014274  00000-0  97486-3 0  9993","SITE":"AFETR","OBJECT_TYPE":"PAYLOAD","DECAY_DATE":null,"LAUNCH_DATE":"2021-05-15","EPOCH":"2023-05-31T20:52:59.114496","ARG_OF_PERICENTER":"81.5919","APOAPSIS":"547.739","OBJECT_ID":"2021-041AV","MEAN_MOTION_DOT":"0.00014274","MEAN_MOTION":"15.06413440","REF_FRAME":"TEME","MEAN_MOTION_DDOT":"0.0000000000000","TIME_SYSTEM":"UTC","FILE":"3922037","MEAN_ANOMALY":"278.5162","MEAN_ELEMENT_THEORY":"SGP4","PERIOD":"95.591","BSTAR":"0.00097486000000","INCLINATION":"53.0542","COUNTRY_CODE":"US","GP_ID":"232926323","OBJECT_NAME":"STARLINK-2253","PERIAPSIS":"546.606","NORAD_CAT_ID":"48596","CLASSIFICATION_TYPE":"U","REV_AT_EPOCH":"11286","CENTER_NAME":"EARTH","SEMIMAJOR_AXIS":"6925.307","ELEMENT_SET_NO":"999","TLE_LINE2":"2 48596  53.0542   8.3430 0000818  81.5919 278.5162 15.06413440112868","EPHEMERIS_TYPE":"0","ECCENTRICITY":"0.00008180","RA_OF_ASC_NODE":"8.3430","RCS_SIZE":"LARGE"},{"LAUNCH_DATE":"2021-05-15","DECAY_DATE":null,"SITE":"AFETR","OBJECT_TYPE":"PAYLOAD","TLE_LINE1":"1 48597U 21041AW  23151.87750058 -.00010800  00000-0 -70769-3 0  9996","MEAN_MOTION":"15.06378006","MEAN_MOTION_DOT":"-0.00010800","APOAPSIS":"547.751","OBJECT_ID":"2021-041AW","ARG_OF_PERICENTER":"81.3846","EPOCH":"2023-05-31T21:03:36.050112","BSTAR":"-0.00070769000000","PERIOD":"95.594","INCLINATION":"53.0549","GP_ID":"232926574","COUNTRY_CODE":"US","MEAN_ELEMENT_THEORY":"SGP4","MEAN_ANOMALY":"278.7220","FILE":"3922037","REF_FRAME":"TEME","MEAN_MOTION_DDOT":"0.0000000000000","TIME_SYSTEM":"UTC","NORAD_CAT_ID":"48597","CLASSIFICATION_TYPE":"U","PERIAPSIS":"546.811","OBJECT_NAME":"STARLINK-2255","REV_AT_EPOCH":"11367","ELEMENT_SET_NO":"999","CENTER_NAME":"EARTH","SEMIMAJOR_AXIS":"6925.416","ECCENTRICITY":"0.00006790","TLE_LINE2":"2 48597  53.0549   8.3121 0000679  81.3846 278.7220 15.06378006113670","EPHEMERIS_TYPE":"0","RA_OF_ASC_NODE":"8.3121","RCS_SIZE":"LARGE"},{"TLE_LINE1":"1 48598U 21041AX  23151.88118495  .00005486  00000-0  38686-3 0  9995","SITE":"AFETR","OBJECT_TYPE":"PAYLOAD","DECAY_DATE":null,"LAUNCH_DATE":"2021-05-15","EPOCH":"2023-05-31T21:08:54.379680","ARG_OF_PERICENTER":"98.8572","APOAPSIS":"547.929","OBJECT_ID":"2021-041AX","MEAN_MOTION_DOT":"0.00005486","MEAN_MOTION":"15.06403534","MEAN_MOTION_DDOT":"0.0000000000000","REF_FRAME":"TEME","TIME_SYSTEM":"UTC","FILE":"3922037","MEAN_ANOMALY":"261.2536","MEAN_ELEMENT_THEORY":"SGP4","PERIOD":"95.592","INCLINATION":"53.0552","BSTAR":"0.00038686000000","GP_ID":"232925322","COUNTRY_CODE":"US","OBJECT_NAME":"STARLINK-2256","PERIAPSIS":"546.476","NORAD_CAT_ID":"48598","CLASSIFICATION_TYPE":"U","REV_AT_EPOCH":"11286","CENTER_NAME":"EARTH","SEMIMAJOR_AXIS":"6925.338","ELEMENT_SET_NO":"999","TLE_LINE2":"2 48598  53.0552   8.2898 0001049  98.8572 261.2536 15.06403534112868","EPHEMERIS_TYPE":"0","ECCENTRICITY":"0.00010490","RCS_SIZE":"LARGE","RA_OF_ASC_NODE":"8.2898"},{"NORAD_CAT_ID":"48599","CLASSIFICATION_TYPE":"U","PERIAPSIS":"546.476","OBJECT_NAME":"STARLINK-2274","BSTAR":"0.00013421000000","PERIOD":"95.593","INCLINATION":"53.0539","GP_ID":"232925572","COUNTRY_CODE":"US","MEAN_ANOMALY":"272.1830","MEAN_ELEMENT_THEORY":"SGP4","FILE":"3922037","MEAN_MOTION_DDOT":"0.0000000000000","REF_FRAME":"TEME","TIME_SYSTEM":"UTC","MEAN_MOTION":"15.06391795","MEAN_MOTION_DOT":"0.00001718","APOAPSIS":"548.001","OBJECT_ID":"2021-041AY","ARG_OF_PERICENTER":"87.9285","EPOCH":"2023-05-31T20:11:11.470272","LAUNCH_DATE":"2021-05-15","DECAY_DATE":null,"SITE":"AFETR","OBJECT_TYPE":"PAYLOAD","TLE_LINE1":"1 48599U 21041AY  23151.84110498  .00001718  00000-0  13421-3 0  9991","RCS_SIZE":"LARGE","RA_OF_ASC_NODE":"343.4725","ECCENTRICITY":"0.00011010","TLE_LINE2":"2 48599  53.0539 343.4725 0001101  87.9285 272.1830 15.06391795114029","EPHEMERIS_TYPE":"0","ELEMENT_SET_NO":"999","CENTER_NAME":"EARTH","SEMIMAJOR_AXIS":"6925.374","REV_AT_EPOCH":"11402"},{"EPOCH":"2023-05-31T21:04:55.590816","ARG_OF_PERICENTER":"86.6309","APOAPSIS":"547.897","OBJECT_ID":"2021-041AZ","MEAN_MOTION":"15.06394042","MEAN_MOTION_DOT":"-0.00000304","TLE_LINE1":"1 48600U 21041AZ  23151.87842119 -.00000304  00000-0 -14982-5 0  9996","SITE":"AFETR","OBJECT_TYPE":"PAYLOAD","DECAY_DATE":null,"LAUNCH_DATE":"2021-05-15","OBJECT_NAME":"STARLINK-2275","PERIAPSIS":"546.567","NORAD_CAT_ID":"48600","CLASSIFICATION_TYPE":"U","REF_FRAME":"TEME","MEAN_MOTION_DDOT":"0.0000000000000","TIME_SYSTEM":"UTC","FILE":"3922037","MEAN_ANOMALY":"273.4790","MEAN_ELEMENT_THEORY":"SGP4","PERIOD":"95.593","BSTAR":"-0.00000149820000","INCLINATION":"53.0543","GP_ID":"232926823","COUNTRY_CODE":"US","CENTER_NAME":"EARTH","SEMIMAJOR_AXIS":"6925.367","ELEMENT_SET_NO":"999","REV_AT_EPOCH":"11381","RA_OF_ASC_NODE":"358.3027","RCS_SIZE":"LARGE","TLE_LINE2":"2 48600  53.0543 358.3027 0000960  86.6309 273.4790 15.06394042113815","EPHEMERIS_TYPE":"0","ECCENTRICITY":"0.00009600"},{"RCS_SIZE":"LARGE","RA_OF_ASC_NODE":"343.6203","ECCENTRICITY":"0.00008660","TLE_LINE2":"2 48602  53.0540 343.6203 0000866  82.3423 277.7664 15.06403764114003","EPHEMERIS_TYPE":"0","ELEMENT_SET_NO":"999","CENTER_NAME":"EARTH","SEMIMAJOR_AXIS":"6925.337","REV_AT_EPOCH":"11400","NORAD_CAT_ID":"48602","CLASSIFICATION_TYPE":"U","PERIAPSIS":"546.602","OBJECT_NAME":"STARLINK-2713","PERIOD":"95.592","BSTAR":"0.00045484000000","INCLINATION":"53.0540","GP_ID":"232927074","COUNTRY_CODE":"US","MEAN_ELEMENT_THEORY":"SGP4","MEAN_ANOMALY":"277.7664","FILE":"3922037","MEAN_MOTION_DDOT":"0.0000000000000","REF_FRAME":"TEME","TIME_SYSTEM":"UTC","MEAN_MOTION_DOT":"0.00006501","MEAN_MOTION":"15.06403764","APOAPSIS":"547.802","OBJECT_ID":"2021-041BB","ARG_OF_PERICENTER":"82.3423","EPOCH":"2023-05-31T19:23:24.799488","LAUNCH_DATE":"2021-05-15","DECAY_DATE":null,"SITE":"AFETR","OBJECT_TYPE":"PAYLOAD","TLE_LINE1":"1 48602U 21041BB  23151.80792592  .00006501  00000-0  45484-3 0  9992"},{"DECAY_DATE":null,"LAUNCH_DATE":"2021-05-15","TLE_LINE1":"1 48603U 21041BC  23151.78720035  .00025891  00000-0  17490-2 0  9991","OBJECT_TYPE":"PAYLOAD","SITE":"AFETR","OBJECT_ID":"2021-041BC","APOAPSIS":"547.539","MEAN_MOTION_DOT":"0.00025891","MEAN_MOTION":"15.06435673","EPOCH":"2023-05-31T18:53:34.110240","ARG_OF_PERICENTER":"105.6371","MEAN_ELEMENT_THEORY":"SGP4","MEAN_ANOMALY":"254.4687","COUNTRY_CODE":"US","GP_ID":"232925822","PERIOD":"95.590","BSTAR":"0.00174900000000","INCLINATION":"53.0537","TIME_SYSTEM":"UTC","MEAN_MOTION_DDOT":"0.0000000000000","REF_FRAME":"TEME","FILE":"3922037","PERIAPSIS":"546.669","CLASSIFICATION_TYPE":"U","NORAD_CAT_ID":"48603","OBJECT_NAME":"STARLINK-2714","REV_AT_EPOCH":"11408","ELEMENT_SET_NO":"999","SEMIMAJOR_AXIS":"6925.239","CENTER_NAME":"EARTH","EPHEMERIS_TYPE":"0","TLE_LINE2":"2 48603  53.0537 338.7168 0000628 105.6371 254.4687 15.06435673114081","ECCENTRICITY":"0.00006280","RCS_SIZE":"LARGE","RA_OF_ASC_NODE":"338.7168"}];
